[{"OBJECT_NAME":"STARLINK-32764","OBJECT_ID":"2025-006S","EPOCH":"2026-03-09T00:07:32.462112","MEAN_MOTION":15.27581634,"ECCENTRICITY":0.00010231,"INCLINATION":42.999,"RA_OF_ASC_NODE":296.8116,"ARG_OF_PERICENTER":259.3279,"MEAN_ANOMALY":100.7457,"EPHEMERIS_TYPE":0,"CLASSIFICATION_TYPE":"U","NORAD_CAT_ID":62570,"ELEMENT_SET_NO":999,"REV_AT_EPOCH":6475,"BSTAR":0.0011168124,"MEAN_MOTION_DOT":0.00030599,"MEAN_MOTION_DDOT":0},{"OBJECT_NAME":"OBJECT D","OBJECT_ID":"2025-197D","EPOCH":"2026-03-09T23:30:56.303712","MEAN_MOTION":15.25287442,"ECCENTRICITY":0.00144425,"INCLINATION":97.4091,"RA_OF_ASC_NODE":257.3677,"ARG_OF_PERICENTER":3.398,"MEAN_ANOMALY":356.7353,"EPHEMERIS_TYPE":0,"CLASSIFICATION_TYPE":"U","NORAD_CAT_ID":65491,"ELEMENT_SET_NO":999,"REV_AT_EPOCH":2822,"BSTAR":0.00037200129,"MEAN_MOTION_DOT":9.321e-5,"MEAN_MOTION_DDOT":0}]
